[{"OBJECT_NAME":"STARLINK-35100","OBJECT_ID":"2025-200Y","EPOCH":"2026-03-09T22:25:40.522656","MEAN_MOTION":15.05646142,"ECCENTRICITY":0.00014193,"INCLINATION":97.6033,"RA_OF_ASC_NODE":139.9791,"ARG_OF_PERICENTER":100.2102,"MEAN_ANOMALY":259.9285,"EPHEMERIS_TYPE":0,"CLASSIFICATION_TYPE":"U","NORAD_CAT_ID":65542,"ELEMENT_SET_NO":999,"REV_AT_EPOCH":2916,"BSTAR":0.00023164554,"MEAN_MOTION_DOT":3.283e-5,"MEAN_MOTION_DDOT":0},{"OBJECT_NAME":"NOAA 17 DEB","OBJECT_ID":"2002-032DT","EPOCH":"2026-03-08T22:47:54.624192","MEAN_MOTION":15.08678856,"ECCENTRICITY":0.0018728,"INCLINATION":98.77,"RA_OF_ASC_NODE":121.3607,"ARG_OF_PERICENTER":298.7191,"MEAN_ANOMALY":61.2152,"EPHEMERIS_TYPE":0,"CLASSIFICATION_TYPE":"U","NORAD_CAT_ID":49489,"ELEMENT_SET_NO":999,"REV_AT_EPOCH":24229,"BSTAR":0.0068247859,"MEAN_MOTION_DOT":0.00108865,"MEAN_MOTION_DDOT":0}]
